COMMENT,ORIGINATOR,NORAD_CAT_ID,OBJECT_NAME,OBJECT_TYPE,CLASSIFICATION_TYPE,INTLDES,EPOCH,EPOCH_MICROSECONDS,MEAN_MOTION,ECCENTRICITY,INCLINATION,RA_OF_ASC_NODE,ARG_OF_PERICENTER,MEAN_ANOMALY,EPHEMERIS_TYPE,ELEMENT_SET_NO,REV_AT_EPOCH,BSTAR,MEAN_MOTION_DOT,MEAN_MOTION_DDOT,FILE,TLE_LINE0,TLE_LINE1,TLE_LINE2,OBJECT_ID,OBJECT_NUMBER,SEMIMAJOR_AXIS,PERIOD,APOGEE,PERIGEE,DECAYED,date
GENERATED VIA SPACETRACK.ORG API,18 SPCS,48884,SPACEBEE-101,PAYLOAD,U,21059F,2023/2/4 8:57,770912,15.21794701,0.0007823,97.5768,169.935,19.4933,340.66,0,999,8911,0.00097542,0.00022131,0,3771952,0 SPACEBEE-101,1 48884U 21059F   23035.37304133  .00022131  00000-0  97542-3 0  9995,2 48884  97.5768 169.9350 0007823  19.4933 340.6600 15.21794701 89113,2021-059F,48884,6878.564,94.625,505.81,495.048,0,2023/3/11
GENERATED VIA SPACETRACK.ORG API,18 SPCS,48884,SPACEBEE-101,PAYLOAD,U,21059F,2023/2/4 21:34,434592,15.21814992,0.0007776,97.577,170.4648,18.095,342.0561,0,999,8919,0.00079175,0.00017951,0,3772514,0 SPACEBEE-101,1 48884U 21059F   23035.89906753  .00017951  00000-0  79175-3 0  9994,2 48884  97.5770 170.4648 0007776  18.0950 342.0561 15.21814992 89199,2021-059F,48884,6878.503,94.624,505.717,495.019,0,2023/3/12
GENERATED VIA SPACETRACK.ORG API,18 SPCS,48884,SPACEBEE-101,PAYLOAD,U,21059F,2023/2/5 8:37,468832,15.2183402,0.0007801,97.5771,170.9285,15.9044,344.2435,0,999,8926,0.00082363,0.00018689,0,3773728,0 SPACEBEE-101,1 48884U 21059F   23036.35933413  .00018689  00000-0  82363-3 0  9991,2 48884  97.5771 170.9285 0007801  15.9044 344.2435 15.21834020 89267,2021-059F,48884,6878.446,94.623,505.677,494.945,0,2023/3/13
GENERATED VIA SPACETRACK.ORG API,18 SPCS,48884,SPACEBEE-101,PAYLOAD,U,21059F,2023/2/5 19:40,996768,15.21854282,0.0007716,97.5774,171.3918,14.6479,345.4978,0,999,8933,0.00084613,0.00019214,0,3773857,0 SPACEBEE-101,1 48884U 21059F   23036.81959487  .00019214  00000-0  84613-3 0  9996,2 48884  97.5774 171.3918 0007716  14.6479 345.4978 15.21854282 89336,2021-059F,48884,6878.385,94.621,505.557,494.942,0,2023/3/14
GENERATED VIA SPACETRACK.ORG API,18 SPCS,48884,SPACEBEE-101,PAYLOAD,U,21059F,2023/2/5 21:14,869344,15.2185777,0.0007719,97.5774,171.4581,14.2622,345.883,0,999,8934,0.00086373,0.00019618,0,3774172,0 SPACEBEE-101,1 48884U 21059F   23036.88534571  .00019618  00000-0  86373-3 0  9999,2 48884  97.5774 171.4581 0007719  14.2622 345.8830 15.21857770 89349,2021-059F,48884,6878.374,94.621,505.549,494.93,0,2023/3/15
GENERATED VIA SPACETRACK.ORG API,18 SPCS,48884,SPACEBEE-101,PAYLOAD,U,21059F,2023/2/6 8:17,776064,15.21880661,0.0007771,97.5773,171.9219,12.0806,348.0615,0,999,8941,0.0010632,0.00024197,0,3775254,0 SPACEBEE-101,1 48884U 21059F   23037.34559926  .00024197  00000-0  10632-2 0  9994,2 48884  97.5773 171.9219 0007771  12.0806 348.0615 15.21880661 89418,2021-059F,48884,6878.305,94.62,505.515,494.825,0,2023/3/16
GENERATED VIA SPACETRACK.ORG API,18 SPCS,48884,SPACEBEE-101,PAYLOAD,U,21059F,2023/2/6 19:20,64160,15.21905333,0.0007804,97.5775,172.3856,10.0807,350.0584,0,999,8948,0.0011479,0.00026156,0,3775457,0 SPACEBEE-101,1 48884U 21059F   23037.80584565  .00026156  00000-0  11479-2 0  9999,2 48884  97.5775 172.3856 0007804  10.0807 350.0584 15.21905333 89487,2021-059F,48884,6878.231,94.618,505.464,494.728,0,2023/3/17
GENERATED VIA SPACETRACK.ORG API,18 SPCS,48884,SPACEBEE-101,PAYLOAD,U,21059F,2023/2/6 20:55,744064,15.2190958,0.0007796,97.5775,172.4519,9.7975,350.3411,0,999,8949,0.0011583,0.00026398,0,3776034,0 SPACEBEE-101,1 48884U 21059F   23037.87159426  .00026398  00000-0  11583-2 0  9994,2 48884  97.5775 172.4519 0007796   9.7975 350.3411 15.21909580 89496,2021-059F,48884,6878.218,94.618,505.445,494.721,0,2023/3/18
GENERATED VIA SPACETRACK.ORG API,18 SPCS,48884,SPACEBEE-101,PAYLOAD,U,21059F,2023/2/7 7:57,162976,15.2194101,0.0007803,97.5776,172.9154,8.3432,351.7932,0,999,8956,0.0014084,0.00032168,0,3777208,0 SPACEBEE-101,1 48884U 21059F   23038.33183059  .00032168  00000-0  14084-2 0  9996,2 48884  97.5776 172.9154 0007803   8.3432 351.7932 15.21941010 89564,2021-059F,48884,6878.123,94.616,505.355,494.621,0,2023/3/19
GENERATED VIA SPACETRACK.ORG API,18 SPCS,48884,SPACEBEE-101,PAYLOAD,U,21059F,2023/2/7 7:57,162976,15.2194101,0.0007803,97.5776,172.9154,8.3432,351.7932,0,999,8956,0.0014084,0.00032168,0,3777479,0 SPACEBEE-101,1 48884U 21059F   23038.33183059  .00032168  00000-0  14084-2 0  9996,2 48884  97.5776 172.9154 0007803   8.3432 351.7932 15.21941010 89564,2021-059F,48884,6878.123,94.616,505.355,494.621,0,2023/3/20
GENERATED VIA SPACETRACK.ORG API,18 SPCS,48884,SPACEBEE-101,PAYLOAD,U,21059F,2023/2/7 22:09,713088,15.21978021,0.0007751,97.5778,173.5113,6.2925,353.8406,0,999,8965,0.0013345,0.00030502,0,3777976,0 SPACEBEE-101,1 48884U 21059F   23038.92354992  .00030502  00000-0  13345-2 0  9996,2 48884  97.5778 173.5113 0007751   6.2925 353.8406 15.21978021 89655,2021-059F,48884,6878.012,94.614,505.208,494.546,0,2023/3/21
GENERATED VIA SPACETRACK.ORG API,18 SPCS,48884,SPACEBEE-101,PAYLOAD,U,21059F,2023/2/8 7:37,909856,15.22008367,0.000778,97.5776,173.909,4.8276,355.3033,0,999,8971,0.0014538,0.00033278,0,3780324,0 SPACEBEE-101,1 48884U 21059F   23039.31801979  .00033278  00000-0  14538-2 0  9990,2 48884  97.5776 173.9090 0007780   4.8276 355.3033 15.22008367 89714,2021-059F,48884,6877.92,94.612,505.136,494.434,0,2023/3/22
GENERATED VIA SPACETRACK.ORG API,18 SPCS,48884,SPACEBEE-101,PAYLOAD,U,21059F,2023/2/8 21:49,36448,15.22053419,0.0007788,97.5778,174.5052,2.8252,357.3026,0,999,8980,0.0015578,0.00035723,0,3780893,0 SPACEBEE-101,1 48884U 21059F   23039.90971107  .00035723  00000-0  15578-2 0  9998,2 48884  97.5778 174.5052 0007788   2.8252 357.3026 15.22053419 89803,2021-059F,48884,6877.785,94.609,505.006,494.293,0,2023/3/23
GENERATED VIA SPACETRACK.ORG API,18 SPCS,48884,SPACEBEE-101,PAYLOAD,U,21059F,2023/2/8 21:49,36448,15.22053419,0.0007788,97.5778,174.5052,2.8252,357.3026,0,999,8980,0.0015578,0.00035723,0,3781301,0 SPACEBEE-101,1 48884U 21059F   23039.90971107  .00035723  00000-0  15578-2 0  9998,2 48884  97.5778 174.5052 0007788   2.8252 357.3026 15.22053419 89803,2021-059F,48884,6877.785,94.609,505.006,494.293,0,2023/3/24
GENERATED VIA SPACETRACK.ORG API,18 SPCS,48884,SPACEBEE-101,PAYLOAD,U,21059F,2023/2/9 8:52,627840,15.22089849,0.00078,97.5778,174.9689,1.3569,358.7686,0,999,8987,0.0016294,0.00037417,0,3782313,0 SPACEBEE-101,1 48884U 21059F   23040.36990310  .00037417  00000-0  16294-2 0  9995,2 48884  97.5778 174.9689 0007800   1.3569 358.7686 15.22089849 89873,2021-059F,48884,6877.675,94.607,504.905,494.175,0,2023/3/25
GENERATED VIA SPACETRACK.ORG API,18 SPCS,48884,SPACEBEE-101,PAYLOAD,U,21059F,2023/2/9 19:55,350912,15.22123268,0.0007781,97.5778,175.4326,359.888,0.2352,0,999,8994,0.0015575,0.00035789,0,3783241,0 SPACEBEE-101,1 48884U 21059F   23040.83008508  .00035789  00000-0  15575-2 0  9997,2 48884  97.5778 175.4326 0007781 359.8880   0.2352 15.22123268 89943,2021-059F,48884,6877.574,94.605,504.791,494.088,0,2023/3/26
GENERATED VIA SPACETRACK.ORG API,18 SPCS,48884,SPACEBEE-101,PAYLOAD,U,21059F,2023/2/9 21:29,216928,15.22128988,0.0007783,97.578,175.4988,359.4215,0.701,0,999,8995,0.0015931,0.00036619,0,3784184,0 SPACEBEE-101,1 48884U 21059F   23040.89582427  .00036619  00000-0  15931-2 0  9999,2 48884  97.5780 175.4988 0007783 359.4215   0.7010 15.22128988 89951,2021-059F,48884,6877.557,94.604,504.775,494.069,0,2023/3/27
GENERATED VIA SPACETRACK.ORG API,18 SPCS,48884,SPACEBEE-101,PAYLOAD,U,21059F,2023/2/10 8:32,825440,15.22170235,0.0007778,97.5778,175.9626,357.7423,2.3776,0,999,9002,0.0019296,0.0004447,0,3784156,0 SPACEBEE-101,1 48884U 21059F   23041.35599335  .00044470  00000-0  19296-2 0  9999,2 48884  97.5778 175.9626 0007778 357.7423   2.3776 15.22170235 90027,2021-059F,48884,6877.433,94.602,504.647,493.949,0,2023/3/28
GENERATED VIA SPACETRACK.ORG API,18 SPCS,48884,SPACEBEE-101,PAYLOAD,U,21059F,2023/2/10 14:51,600032,15.22187152,0.0007752,97.5777,176.2275,356.8291,3.2894,0,999,9006,0.0016985,0.00039127,0,3785071,0 SPACEBEE-101,1 48884U 21059F   23041.61894213  .00039127  00000-0  16985-2 0  9996,2 48884  97.5777 176.2275 0007752 356.8291   3.2894 15.22187152 90066,2021-059F,48884,6877.382,94.601,504.578,493.916,0,2023/3/29
GENERATED VIA SPACETRACK.ORG API,18 SPCS,48884,SPACEBEE-101,PAYLOAD,U,21059F,2023/2/11 9:47,972032,15.22254233,0.0007876,97.5774,177.0228,353.0653,7.0473,0,999,9018,0.0018293,0.00042247,0,3785739,0 SPACEBEE-101,1 48884U 21059F   23042.40776588  .00042247  00000-0  18293-2 0  9999,2 48884  97.5774 177.0228 0007876 353.0653   7.0473 15.22254233 90181,2021-059F,48884,6877.18,94.597,504.461,493.628,0,2023/3/30
GENERATED VIA SPACETRACK.ORG API,18 SPCS,48884,SPACEBEE-101,PAYLOAD,U,21059F,2023/2/11 9:47,972032,15.22254233,0.0007876,97.5774,177.0228,353.0653,7.0473,0,999,9018,0.0018293,0.00042247,0,3786144,0 SPACEBEE-101,1 48884U 21059F   23042.40776588  .00042247  00000-0  18293-2 0  9999,2 48884  97.5774 177.0228 0007876 353.0653   7.0473 15.22254233 90181,2021-059F,48884,6877.18,94.597,504.461,493.628,0,2023/3/31
GENERATED VIA SPACETRACK.ORG API,18 SPCS,48884,SPACEBEE-101,PAYLOAD,U,21059F,2023/2/12 7:52,785440,15.22325203,0.0007812,97.5772,177.9499,349.8139,10.2937,0,999,9032,0.0016241,0.00037554,0,3787692,0 SPACEBEE-101,1 48884U 21059F   23043.32801835  .00037554  00000-0  16241-2 0  9991,2 48884  97.5772 177.9499 0007812 349.8139  10.2937 15.22325203 90323,2021-059F,48884,6876.966,94.592,504.203,493.459,0,2023/4/1
GENERATED VIA SPACETRACK.ORG API,18 SPCS,48884,SPACEBEE-101,PAYLOAD,U,21059F,2023/2/12 14:10,162432,15.22349278,0.0007787,97.577,178.2147,349.0088,11.0977,0,999,9036,0.0018169,0.00042076,0,3787773,0 SPACEBEE-101,1 48884U 21059F   23043.59093938  .00042076  00000-0  18169-2 0  9993,2 48884  97.5770 178.2147 0007787 349.0088  11.0977 15.22349278 90366,2021-059F,48884,6876.894,94.591,504.114,493.404,0,2023/4/2
